{"type": "FeatureCollection", "features": [ {"type": "Feature", "properties": {"norad_id": 44622, "name": "GAOFEN-10R", "group": "resource", "lat": 29.888855756547958, "lon": 112.61213865598884, "alt_km": 619.2168748546655, "timestamp": "2025-12-06T11:28:10.686968+00:00", "meta": {"OBJECT_NAME": "GAOFEN-10R", "OBJECT_ID": "2019-066A", "EPOCH": "2025-12-05T23:27:37.479168", "MEAN_MOTION": 14.82754856, "ECCENTRICITY": 0.00082, "INCLINATION": 98.027, "RA_OF_ASC_NODE": 287.4576, "ARG_OF_PERICENTER": 60.5507, "MEAN_ANOMALY": 299.6523, "EPHEMERIS_TYPE": 0, "CLASSIFICATION_TYPE": "U", "NORAD_CAT_ID": 44622, "ELEMENT_SET_NO": 999, "REV_AT_EPOCH": 33374, "BSTAR": 0.00039228751, "MEAN_MOTION_DOT": 3.117e-05, "MEAN_MOTION_DDOT": 0}, "tle": {"line1": "1 44622U 19066A   25339.97751712  .00003117  00000+0  39229-3 0  9990", "line2": "2 44622  98.0270 287.4576 0008200  60.5507 299.6523 14.82754856333744"}}, "geometry": {"type": "Point", "coordinates": [112.61213865598884, 29.888855756547958]}}, {"type": "Feature", "properties": {"norad_id": 44804, "name": "CARTOSAT-3", "group": "resource", "lat": -31.199005696963805, "lon": -144.4105224314766, "alt_km": 516.5377250653937, "timestamp": "2025-12-06T11:28:10.686979+00:00", "meta": {"OBJECT_NAME": "CARTOSAT-3", "OBJECT_ID": "2019-081A", "EPOCH": "2025-12-05T23:28:42.543552", "MEAN_MOTION": 15.19282277, "ECCENTRICITY": 0.00139027, "INCLINATION": 97.4594, "RA_OF_ASC_NODE": 39.6471, "ARG_OF_PERICENTER": 108.2498, "MEAN_ANOMALY": 252.0251, "EPHEMERIS_TYPE": 0, "CLASSIFICATION_TYPE": "U", "NORAD_CAT_ID": 44804, "ELEMENT_SET_NO": 999, "REV_AT_EPOCH": 33413, "BSTAR": 0.00037497964, "MEAN_MOTION_DOT": 7.864e-05, "MEAN_MOTION_DDOT": 0}, "tle": {"line1": "1 44804U 19081A   25339.97827018  .00007864  00000+0  37498-3 0  9991", "line2": "2 44804  97.4594  39.6471 0013902 108.2498 252.0251 15.19282277334132"}}, "geometry": {"type": "Point", "coordinates": [-144.4105224314766, -31.199005696963805]}}, {"type": "Feature", "properties": {"norad_id": 44819, "name": "GAOFEN-12 01", "group": "resource", "lat": 73.51067749195069, "lon": -165.44236228088747, "alt_km": 621.0834653426591, "timestamp": "2025-12-06T11:28:10.686989+00:00", "meta": {"OBJECT_NAME": "GAOFEN-12 01", "OBJECT_ID": "2019-082A", "EPOCH": "2025-12-05T23:38:44.921760", "MEAN_MOTION": 14.80645042, "ECCENTRICITY": 0.00011945, "INCLINATION": 97.8125, "RA_OF_ASC_NODE": 346.4436, "ARG_OF_PERICENTER": 280.2736, "MEAN_ANOMALY": 79.8342, "EPHEMERIS_TYPE": 0, "CLASSIFICATION_TYPE": "U", "NORAD_CAT_ID": 44819, "ELEMENT_SET_NO": 999, "REV_AT_EPOCH": 32550, "BSTAR": 0.00013093055, "MEAN_MOTION_DOT": 9.55e-06, "MEAN_MOTION_DDOT": 0}, "tle": {"line1": "1 44819U 19082A   25339.98524215  .00000955  00000+0  13093-3 0  9991", "line2": "2 44819  97.8125 346.4436 0001194 280.2736  79.8342 14.80645042325505"}}, "geometry": {"type": "Point", "coordinates": [-165.44236228088747, 73.51067749195069]}}, {"type": "Feature", "properties": {"norad_id": 44873, "name": "CSG-1", "group": "resource", "lat": -1.66515007500061, "lon": -18.33462292721725, "alt_km": 625.9076116302967, "timestamp": "2025-12-06T11:28:10.687000+00:00", "meta": {"OBJECT_NAME": "CSG-1", "OBJECT_ID": "2019-092A", "EPOCH": "2025-12-05T23:18:40.947264", "MEAN_MOTION": 14.82149313, "ECCENTRICITY": 0.00014608, "INCLINATION": 97.8813, "RA_OF_ASC_NODE": 161.3973, "ARG_OF_PERICENTER": 86.2443, "MEAN_ANOMALY": 273.8937, "EPHEMERIS_TYPE": 0, "CLASSIFICATION_TYPE": "U", "NORAD_CAT_ID": 44873, "ELEMENT_SET_NO": 999, "REV_AT_EPOCH": 32285, "BSTAR": 0.00015543783, "MEAN_MOTION_DOT": 1.185e-05, "MEAN_MOTION_DDOT": 0}, "tle": {"line1": "1 44873U 19092A   25339.97130726  .00001185  00000+0  15544-3 0  9990", "line2": "2 44873  97.8813 161.3973 0001460  86.2443 273.8937 14.82149313322857"}}, "geometry": {"type": "Point", "coordinates": [-18.33462292721725, -1.66515007500061]}}, {"type": "Feature", "properties": {"norad_id": 46277, "name": "NEMO-HD", "group": "resource", "lat": 65.39404888129297, "lon": -124.26745350587359, "alt_km": 438.40077709270463, "timestamp": "2025-12-06T11:28:10.687011+00:00", "meta": {"OBJECT_NAME": "NEMO-HD", "OBJECT_ID": "2020-061F", "EPOCH": "2025-12-05T22:30:14.128992", "MEAN_MOTION": 15.40119053, "ECCENTRICITY": 0.00022435, "INCLINATION": 97.2222, "RA_OF_ASC_NODE": 39.1235, "ARG_OF_PERICENTER": 64.4809, "MEAN_ANOMALY": 295.6669, "EPHEMERIS_TYPE": 0, "CLASSIFICATION_TYPE": "U", "NORAD_CAT_ID": 46277, "ELEMENT_SET_NO": 999, "REV_AT_EPOCH": 29219, "BSTAR": 0.00039824316, "MEAN_MOTION_DOT": 0.00015884, "MEAN_MOTION_DDOT": 0}, "tle": {"line1": "1 46277U 20061F   25339.93766353  .00015884  00000+0  39824-3 0  9993", "line2": "2 46277  97.2222  39.1235 0002243  64.4809 295.6669 15.40119053292192"}}, "geometry": {"type": "Point", "coordinates": [-124.26745350587359, 65.39404888129297]}}, {"type": "Feature", "properties": {"norad_id": 46984, "name": "SENTINEL-6A", "group": "resource", "lat": 23.99672406806979, "lon": -173.26871285873455, "alt_km": 1338.8890472594148, "timestamp": "2025-12-06T11:28:10.687021+00:00", "meta": {"OBJECT_NAME": "SENTINEL-6A", "OBJECT_ID": "2020-086A", "EPOCH": "2025-12-05T22:12:55.233792", "MEAN_MOTION": 12.80930287, "ECCENTRICITY": 0.00077362, "INCLINATION": 66.0392, "RA_OF_ASC_NODE": 176.4614, "ARG_OF_PERICENTER": 269.181, "MEAN_ANOMALY": 90.8319, "EPHEMERIS_TYPE": 0, "CLASSIFICATION_TYPE": "U", "NORAD_CAT_ID": 46984, "ELEMENT_SET_NO": 999, "REV_AT_EPOCH": 23557, "BSTAR": 0.00010730915, "MEAN_MOTION_DOT": -3.6e-07, "MEAN_MOTION_DDOT": 0}, "tle": {"line1": "1 46984U 20086A   25339.92563928 -.00000036  00000+0  10731-3 0  9997", "line2": "2 46984  66.0392 176.4614 0007736 269.1810  90.8319 12.80930287235570"}}, "geometry": {"type": "Point", "coordinates": [-173.26871285873455, 23.99672406806979]}}, {"type": "Feature", "properties": {"norad_id": 48079, "name": "GAOFEN-12 02", "group": "resource", "lat": 63.462692556691266, "lon": 170.83850924512294, "alt_km": 618.6930234595084, "timestamp": "2025-12-06T11:28:10.687031+00:00", "meta": {"OBJECT_NAME": "GAOFEN-12 02", "OBJECT_ID": "2021-026A", "EPOCH": "2025-12-05T23:35:51.109152", "MEAN_MOTION": 14.80662282, "ECCENTRICITY": 0.00033612, "INCLINATION": 97.9847, "RA_OF_ASC_NODE": 334.0224, "ARG_OF_PERICENTER": 114.4774, "MEAN_ANOMALY": 245.6789, "EPHEMERIS_TYPE": 0, "CLASSIFICATION_TYPE": "U", "NORAD_CAT_ID": 48079, "ELEMENT_SET_NO": 999, "REV_AT_EPOCH": 25317, "BSTAR": 0.00013306933, "MEAN_MOTION_DOT": 9.7e-06, "MEAN_MOTION_DDOT": 0}, "tle": {"line1": "1 48079U 21026A   25339.98323043  .00000970  00000+0  13307-3 0  9995", "line2": "2 48079  97.9847 334.0224 0003361 114.4774 245.6789 14.80662282253171"}}, "geometry": {"type": "Point", "coordinates": [170.83850924512294, 63.462692556691266]}}, {"type": "Feature", "properties": {"norad_id": 48268, "name": "PLEIADES NEO 3", "group": "resource", "lat": 19.90781058730137, "lon": -124.11086411156126, "alt_km": 623.8276082824596, "timestamp": "2025-12-06T11:28:10.687042+00:00", "meta": {"OBJECT_NAME": "PLEIADES NEO 3", "OBJECT_ID": "2021-034A", "EPOCH": "2025-12-05T23:24:19.719936", "MEAN_MOTION": 14.81671933, "ECCENTRICITY": 0.00013055, "INCLINATION": 97.8949, "RA_OF_ASC_NODE": 52.5132, "ARG_OF_PERICENTER": 92.9711, "MEAN_ANOMALY": 267.1652, "EPHEMERIS_TYPE": 0, "CLASSIFICATION_TYPE": "U", "NORAD_CAT_ID": 48268, "ELEMENT_SET_NO": 999, "REV_AT_EPOCH": 24904, "BSTAR": 2.644237e-05, "MEAN_MOTION_DOT": 1.56e-06, "MEAN_MOTION_DDOT": 0}, "tle": {"line1": "1 48268U 21034A   25339.97522824  .00000156  00000+0  26442-4 0  9992", "line2": "2 48268  97.8949  52.5132 0001305  92.9711 267.1652 14.81671933249043"}}, "geometry": {"type": "Point", "coordinates": [-124.11086411156126, 19.90781058730137]}}, {"type": "Feature", "properties": {"norad_id": 49070, "name": "PLEIADES NEO 4", "group": "resource", "lat": -20.09531831917282, "lon": 55.914231736614134, "alt_km": 629.634355140498, "timestamp": "2025-12-06T11:28:10.687052+00:00", "meta": {"OBJECT_NAME": "PLEIADES NEO 4", "OBJECT_ID": "2021-073E", "EPOCH": "2025-12-05T22:35:41.263584", "MEAN_MOTION": 14.81672547, "ECCENTRICITY": 0.00012577, "INCLINATION": 97.8949, "RA_OF_ASC_NODE": 52.4755, "ARG_OF_PERICENTER": 95.715, "MEAN_ANOMALY": 264.4207, "EPHEMERIS_TYPE": 0, "CLASSIFICATION_TYPE": "U", "NORAD_CAT_ID": 49070, "ELEMENT_SET_NO": 999, "REV_AT_EPOCH": 23275, "BSTAR": -1.2433367e-05, "MEAN_MOTION_DOT": -1.5e-06, "MEAN_MOTION_DDOT": 0}, "tle": {"line1": "1 49070U 21073E   25339.94144981 -.00000150  00000+0 -12433-4 0  9999", "line2": "2 49070  97.8949  52.4755 0001257  95.7150 264.4207 14.81672547232757"}}, "geometry": {"type": "Point", "coordinates": [55.914231736614134, -20.09531831917282]}}, {"type": "Feature", "properties": {"norad_id": 49260, "name": "LANDSAT 9", "group": "resource", "lat": -9.206744419127952, "lon": -132.6615548937997, "alt_km": 706.6935682381782, "timestamp": "2025-12-06T11:28:10.687062+00:00", "meta": {"OBJECT_NAME": "LANDSAT 9", "OBJECT_ID": "2021-088A", "EPOCH": "2025-12-05T18:07:25.074048", "MEAN_MOTION": 14.57119267, "ECCENTRICITY": 0.00010712, "INCLINATION": 98.2102, "RA_OF_ASC_NODE": 47.9671, "ARG_OF_PERICENTER": 93.1956, "MEAN_ANOMALY": 266.9365, "EPHEMERIS_TYPE": 0, "CLASSIFICATION_TYPE": "U", "NORAD_CAT_ID": 49260, "ELEMENT_SET_NO": 999, "REV_AT_EPOCH": 22283, "BSTAR": 0.0002069972, "MEAN_MOTION_DOT": 8.88e-06, "MEAN_MOTION_DDOT": 0}, "tle": {"line1": "1 49260U 21088A   25339.75515132  .00000888  00000+0  20700-3 0  9996", "line2": "2 49260  98.2102  47.9671 0001071  93.1956 266.9365 14.57119267222838"}}, "geometry": {"type": "Point", "coordinates": [-132.6615548937997, -9.206744419127952]}}]}